KUIPER-00157            
1 65970U 25228Z   25328.69392824  .00023027  00000+0  67690-3 0  9993
2 65970  51.8794 107.6074 0006301 311.4316  48.6128 15.34989331  7649
